{"type": "FeatureCollection", "features": [ {"type": "Feature", "properties": {"norad_id": 38953, "name": "BEIDOU-2 G6 (C02)", "group": "beidou", "lat": 3.769473702793364, "lon": 149.68903846561545, "alt_km": 35810.37943227786, "timestamp": "2025-12-02T23:34:15.781510+00:00", "meta": {"OBJECT_NAME": "BEIDOU-2 G6 (C02)", "OBJECT_ID": "2012-059A", "EPOCH": "2025-12-02T03:54:44.266176", "MEAN_MOTION": 1.0027097, "ECCENTRICITY": 0.00072922, "INCLINATION": 3.9201, "RA_OF_ASC_NODE": 75.6056, "ARG_OF_PERICENTER": 290.7249, "MEAN_ANOMALY": 207.6781, "EPHEMERIS_TYPE": 0, "CLASSIFICATION_TYPE": "U", "NORAD_CAT_ID": 38953, "ELEMENT_SET_NO": 999, "REV_AT_EPOCH": 4793, "BSTAR": 0, "MEAN_MOTION_DOT": -1.56e-06, "MEAN_MOTION_DDOT": 0}, "tle": {"line1": "1 38953U 12059A   25336.16301234 -.00000156  00000+0  00000+0 0  9995", "line2": "2 38953   3.9201  75.6056 0007292 290.7249 207.6781  1.00270970 47937"}}, "geometry": {"type": "Point", "coordinates": [149.68903846561545, 3.769473702793364]}}, {"type": "Feature", "properties": {"norad_id": 40748, "name": "BEIDOU-3S M2S (C58)", "group": "beidou", "lat": 43.701968819570794, "lon": 86.84987909698765, "alt_km": 21551.437656377508, "timestamp": "2025-12-02T23:34:15.781521+00:00", "meta": {"OBJECT_NAME": "BEIDOU-3S M2S (C58)", "OBJECT_ID": "2015-037A", "EPOCH": "2025-12-01T04:31:01.292160", "MEAN_MOTION": 1.86229002, "ECCENTRICITY": 0.0012493, "INCLINATION": 55.0491, "RA_OF_ASC_NODE": 308.8604, "ARG_OF_PERICENTER": 267.0141, "MEAN_ANOMALY": 92.8367, "EPHEMERIS_TYPE": 0, "CLASSIFICATION_TYPE": "U", "NORAD_CAT_ID": 40748, "ELEMENT_SET_NO": 999, "REV_AT_EPOCH": 7043, "BSTAR": 0, "MEAN_MOTION_DOT": -5.6e-07, "MEAN_MOTION_DDOT": 0}, "tle": {"line1": "1 40748U 15037A   25335.18820940 -.00000056  00000+0  00000+0 0  9999", "line2": "2 40748  55.0491 308.8604 0012493 267.0141  92.8367  1.86229002 70437"}}, "geometry": {"type": "Point", "coordinates": [86.84987909698765, 43.701968819570794]}}, {"type": "Feature", "properties": {"norad_id": 40749, "name": "BEIDOU-3S M1S (C57)", "group": "beidou", "lat": -26.11579778171698, "lon": -71.27907440367571, "alt_km": 21521.06245136925, "timestamp": "2025-12-02T23:34:15.781532+00:00", "meta": {"OBJECT_NAME": "BEIDOU-3S M1S (C57)", "OBJECT_ID": "2015-037B", "EPOCH": "2025-11-26T01:13:29.678016", "MEAN_MOTION": 1.8625392, "ECCENTRICITY": 0.00032681, "INCLINATION": 55.0504, "RA_OF_ASC_NODE": 309.0266, "ARG_OF_PERICENTER": 354.4635, "MEAN_ANOMALY": 5.5327, "EPHEMERIS_TYPE": 0, "CLASSIFICATION_TYPE": "U", "NORAD_CAT_ID": 40749, "ELEMENT_SET_NO": 999, "REV_AT_EPOCH": 7034, "BSTAR": 0, "MEAN_MOTION_DOT": -4e-07, "MEAN_MOTION_DDOT": 0}, "tle": {"line1": "1 40749U 15037B   25330.05103794 -.00000040  00000+0  00000+0 0  9995", "line2": "2 40749  55.0504 309.0266 0003268 354.4635   5.5327  1.86253920 70342"}}, "geometry": {"type": "Point", "coordinates": [-71.27907440367571, -26.11579778171698]}}, {"type": "Feature", "properties": {"norad_id": 40938, "name": "BEIDOU-3S IGSO-2S (C56)", "group": "beidou", "lat": -48.8124957993315, "lon": 157.83967451814883, "alt_km": 35713.50450391945, "timestamp": "2025-12-02T23:34:15.781544+00:00", "meta": {"OBJECT_NAME": "BEIDOU-3S IGSO-2S (C56)", "OBJECT_ID": "2015-053A", "EPOCH": "2025-11-30T14:22:32.938176", "MEAN_MOTION": 1.00272475, "ECCENTRICITY": 0.0061056, "INCLINATION": 49.5325, "RA_OF_ASC_NODE": 261.1514, "ARG_OF_PERICENTER": 188.8099, "MEAN_ANOMALY": 291.5463, "EPHEMERIS_TYPE": 0, "CLASSIFICATION_TYPE": "U", "NORAD_CAT_ID": 40938, "ELEMENT_SET_NO": 999, "REV_AT_EPOCH": 3736, "BSTAR": 0, "MEAN_MOTION_DOT": -1.61e-06, "MEAN_MOTION_DDOT": 0}, "tle": {"line1": "1 40938U 15053A   25334.59899234 -.00000161  00000+0  00000+0 0  9991", "line2": "2 40938  49.5325 261.1514 0061056 188.8099 291.5463  1.00272475 37362"}}, "geometry": {"type": "Point", "coordinates": [157.83967451814883, -48.8124957993315]}}, {"type": "Feature", "properties": {"norad_id": 41434, "name": "BEIDOU-2 IGSO-6 (C13)", "group": "beidou", "lat": 50.558810339597564, "lon": 175.41520810157724, "alt_km": 35886.8336462716, "timestamp": "2025-12-02T23:34:15.781556+00:00", "meta": {"OBJECT_NAME": "BEIDOU-2 IGSO-6 (C13)", "OBJECT_ID": "2016-021A", "EPOCH": "2025-12-01T15:57:35.287200", "MEAN_MOTION": 1.00256562, "ECCENTRICITY": 0.0059132, "INCLINATION": 59.9483, "RA_OF_ASC_NODE": 40.0119, "ARG_OF_PERICENTER": 231.2834, "MEAN_ANOMALY": 130.8807, "EPHEMERIS_TYPE": 0, "CLASSIFICATION_TYPE": "U", "NORAD_CAT_ID": 41434, "ELEMENT_SET_NO": 999, "REV_AT_EPOCH": 3550, "BSTAR": 0, "MEAN_MOTION_DOT": -1.55e-06, "MEAN_MOTION_DDOT": 0}, "tle": {"line1": "1 41434U 16021A   25335.66499175 -.00000155  00000+0  00000+0 0  9991", "line2": "2 41434  59.9483  40.0119 0059132 231.2834 130.8807  1.00256562 35501"}}, "geometry": {"type": "Point", "coordinates": [175.41520810157724, 50.558810339597564]}}, {"type": "Feature", "properties": {"norad_id": 41586, "name": "BEIDOU-2 G7 (C03)", "group": "beidou", "lat": 1.6258535166608243, "lon": 176.16388752774554, "alt_km": 35790.09145987432, "timestamp": "2025-12-02T23:34:15.781568+00:00", "meta": {"OBJECT_NAME": "BEIDOU-2 G7 (C03)", "OBJECT_ID": "2016-037A", "EPOCH": "2025-12-02T07:27:38.871648", "MEAN_MOTION": 1.00272255, "ECCENTRICITY": 0.0004462, "INCLINATION": 1.7294, "RA_OF_ASC_NODE": 67.6752, "ARG_OF_PERICENTER": 5.5089, "MEAN_ANOMALY": 220.6295, "EPHEMERIS_TYPE": 0, "CLASSIFICATION_TYPE": "U", "NORAD_CAT_ID": 41586, "ELEMENT_SET_NO": 999, "REV_AT_EPOCH": 491, "BSTAR": 0, "MEAN_MOTION_DOT": -3.33e-06, "MEAN_MOTION_DDOT": 0}, "tle": {"line1": "1 41586U 16037A   25336.31086657 -.00000333  00000+0  00000+0 0  9994", "line2": "2 41586   1.7294  67.6752 0004462   5.5089 220.6295  1.00272255  4919"}}, "geometry": {"type": "Point", "coordinates": [176.16388752774554, 1.6258535166608243]}}, {"type": "Feature", "properties": {"norad_id": 43001, "name": "BEIDOU-3 M1 (C19)", "group": "beidou", "lat": -52.11802653978858, "lon": -52.28889200986108, "alt_km": 21518.951336094036, "timestamp": "2025-12-02T23:34:15.781580+00:00", "meta": {"OBJECT_NAME": "BEIDOU-3 M1 (C19)", "OBJECT_ID": "2017-069A", "EPOCH": "2025-12-02T01:41:27.564288", "MEAN_MOTION": 1.86230781, "ECCENTRICITY": 0.00087764, "INCLINATION": 56.5176, "RA_OF_ASC_NODE": 69.587, "ARG_OF_PERICENTER": 303.6575, "MEAN_ANOMALY": 56.2612, "EPHEMERIS_TYPE": 0, "CLASSIFICATION_TYPE": "U", "NORAD_CAT_ID": 43001, "ELEMENT_SET_NO": 999, "REV_AT_EPOCH": 5492, "BSTAR": 0, "MEAN_MOTION_DOT": -4.4e-07, "MEAN_MOTION_DDOT": 0}, "tle": {"line1": "1 43001U 17069A   25336.07045792 -.00000044  00000+0  00000+0 0  9991", "line2": "2 43001  56.5176  69.5870 0008776 303.6575  56.2612  1.86230781 54920"}}, "geometry": {"type": "Point", "coordinates": [-52.28889200986108, -52.11802653978858]}}, {"type": "Feature", "properties": {"norad_id": 43002, "name": "BEIDOU-3 M2 (C20)", "group": "beidou", "lat": -50.42500563537587, "lon": 16.502385765404686, "alt_km": 21520.514573553774, "timestamp": "2025-12-02T23:34:15.781592+00:00", "meta": {"OBJECT_NAME": "BEIDOU-3 M2 (C20)", "OBJECT_ID": "2017-069B", "EPOCH": "2025-12-01T11:19:28.056000", "MEAN_MOTION": 1.86230616, "ECCENTRICITY": 0.00061649, "INCLINATION": 56.5166, "RA_OF_ASC_NODE": 69.6425, "ARG_OF_PERICENTER": 332.397, "MEAN_ANOMALY": 27.5733, "EPHEMERIS_TYPE": 0, "CLASSIFICATION_TYPE": "U", "NORAD_CAT_ID": 43002, "ELEMENT_SET_NO": 999, "REV_AT_EPOCH": 5491, "BSTAR": 0, "MEAN_MOTION_DOT": -4.1e-07, "MEAN_MOTION_DDOT": 0}, "tle": {"line1": "1 43002U 17069B   25335.47185250 -.00000041  00000+0  00000+0 0  9996", "line2": "2 43002  56.5166  69.6425 0006164 332.3970  27.5733  1.86230616 54915"}}, "geometry": {"type": "Point", "coordinates": [16.502385765404686, -50.42500563537587]}}, {"type": "Feature", "properties": {"norad_id": 43107, "name": "BEIDOU-3 M7 (C27)", "group": "beidou", "lat": 51.90607626563878, "lon": 63.62833584951285, "alt_km": 21515.803304358178, "timestamp": "2025-12-02T23:34:15.781603+00:00", "meta": {"OBJECT_NAME": "BEIDOU-3 M7 (C27)", "OBJECT_ID": "2018-003A", "EPOCH": "2025-12-02T06:56:05.635968", "MEAN_MOTION": 1.86232265, "ECCENTRICITY": 0.0002591, "INCLINATION": 54.5061, "RA_OF_ASC_NODE": 309.1785, "ARG_OF_PERICENTER": 70.8685, "MEAN_ANOMALY": 289.1495, "EPHEMERIS_TYPE": 0, "CLASSIFICATION_TYPE": "U", "NORAD_CAT_ID": 43107, "ELEMENT_SET_NO": 999, "REV_AT_EPOCH": 5368, "BSTAR": 0, "MEAN_MOTION_DOT": -6.3e-07, "MEAN_MOTION_DDOT": 0}, "tle": {"line1": "1 43107U 18003A   25336.28895412 -.00000063  00000+0  00000+0 0  9993", "line2": "2 43107  54.5061 309.1785 0002591  70.8685 289.1495  1.86232265 53687"}}, "geometry": {"type": "Point", "coordinates": [63.62833584951285, 51.90607626563878]}}, {"type": "Feature", "properties": {"norad_id": 43108, "name": "BEIDOU-3 M8 (C28)", "group": "beidou", "lat": 30.310468320760876, "lon": 104.46307329174509, "alt_km": 21533.382110641945, "timestamp": "2025-12-02T23:34:15.781614+00:00", "meta": {"OBJECT_NAME": "BEIDOU-3 M8 (C28)", "OBJECT_ID": "2018-003B", "EPOCH": "2025-12-01T03:50:13.118784", "MEAN_MOTION": 1.86230755, "ECCENTRICITY": 0.0004823, "INCLINATION": 54.4999, "RA_OF_ASC_NODE": 309.2007, "ARG_OF_PERICENTER": 273.5581, "MEAN_ANOMALY": 86.3811, "EPHEMERIS_TYPE": 0, "CLASSIFICATION_TYPE": "U", "NORAD_CAT_ID": 43108, "ELEMENT_SET_NO": 999, "REV_AT_EPOCH": 5367, "BSTAR": 0, "MEAN_MOTION_DOT": -5.7e-07, "MEAN_MOTION_DDOT": 0}, "tle": {"line1": "1 43108U 18003B   25335.15987406 -.00000057  00000+0  00000+0 0  9997", "line2": "2 43108  54.4999 309.2007 0004823 273.5581  86.3811  1.86230755 53672"}}, "geometry": {"type": "Point", "coordinates": [104.46307329174509, 30.310468320760876]}}]}